CCSDS_OMM_VERS = 2.0
CREATION_DATE  = 
ORIGINATOR     = 

OBJECT_NAME    = CYGNUS NG-23
OBJECT_ID      = 2025-208A
CENTER_NAME    = EARTH
REF_FRAME      = TEME
TIME_SYSTEM    = UTC
MEAN_ELEMENT_THEORY = SGP/SGP4

EPOCH          = 2025-12-09T04:29:48.234912
MEAN_MOTION    = 15.49438460
ECCENTRICITY   = .00033664
INCLINATION    = 51.6308
RA_OF_ASC_NODE = 160.0685
ARG_OF_PERICENTER = 223.6321
MEAN_ANOMALY   = 136.4401

EPHEMERIS_TYPE = 0
CLASSIFICATION_TYPE = U
NORAD_CAT_ID   = 65616
ELEMENT_SET_NO = 999
REV_AT_EPOCH   = 22
BSTAR          = .2526091E-3
MEAN_MOTION_DOT = .13707E-3
MEAN_MOTION_DDOT = 0

CCSDS_OMM_VERS = 2.0
CREATION_DATE  = 
ORIGINATOR     = 

OBJECT_NAME    = DRAGONFLY
OBJECT_ID      = 1998-067XH
CENTER_NAME    = EARTH
REF_FRAME      = TEME
TIME_SYSTEM    = UTC
MEAN_ELEMENT_THEORY = SGP/SGP4

EPOCH          = 2025-12-09T11:52:26.095008
MEAN_MOTION    = 15.70499103
ECCENTRICITY   = .0006537
INCLINATION    = 51.6245
RA_OF_ASC_NODE = 152.3636
ARG_OF_PERICENTER = 255.9884
MEAN_ANOMALY   = 104.0387

EPHEMERIS_TYPE = 0
CLASSIFICATION_TYPE = U
NORAD_CAT_ID   = 65729
ELEMENT_SET_NO = 999
REV_AT_EPOCH   = 1265
BSTAR          = .14915E-2
MEAN_MOTION_DOT = .190953E-2
MEAN_MOTION_DDOT = 0

CCSDS_OMM_VERS = 2.0
CREATION_DATE  = 
ORIGINATOR     = 

OBJECT_NAME    = 1998-067XK
OBJECT_ID      = 1998-067XK
CENTER_NAME    = EARTH
REF_FRAME      = TEME
TIME_SYSTEM    = UTC
MEAN_ELEMENT_THEORY = SGP/SGP4

EPOCH          = 2025-12-09T11:28:42.047616
MEAN_MOTION    = 15.64890010
ECCENTRICITY   = .0005245
INCLINATION    = 51.6282
RA_OF_ASC_NODE = 153.7695
ARG_OF_PERICENTER = 225.0581
MEAN_ANOMALY   = 134.9989

EPHEMERIS_TYPE = 0
CLASSIFICATION_TYPE = U
NORAD_CAT_ID   = 65731
ELEMENT_SET_NO = 999
REV_AT_EPOCH   = 1263
BSTAR          = .11288E-2
MEAN_MOTION_DOT = .113689E-2
MEAN_MOTION_DDOT = 0

CCSDS_OMM_VERS = 2.0
CREATION_DATE  = 
ORIGINATOR     = 

OBJECT_NAME    = RSP-03
OBJECT_ID      = 1998-067XL
CENTER_NAME    = EARTH
REF_FRAME      = TEME
TIME_SYSTEM    = UTC
MEAN_ELEMENT_THEORY = SGP/SGP4

EPOCH          = 2025-12-09T11:43:58.717056
MEAN_MOTION    = 15.67520874
ECCENTRICITY   = .0006011
INCLINATION    = 51.6260
RA_OF_ASC_NODE = 153.0820
ARG_OF_PERICENTER = 229.3299
MEAN_ANOMALY   = 130.7176

EPHEMERIS_TYPE = 0
CLASSIFICATION_TYPE = U
NORAD_CAT_ID   = 65732
ELEMENT_SET_NO = 999
REV_AT_EPOCH   = 1265
BSTAR          = .1321E-2
MEAN_MOTION_DOT = .148707E-2
MEAN_MOTION_DDOT = 0

CCSDS_OMM_VERS = 2.0
CREATION_DATE  = 
ORIGINATOR     = 

OBJECT_NAME    = GHS-01
OBJECT_ID      = 1998-067XM
CENTER_NAME    = EARTH
REF_FRAME      = TEME
TIME_SYSTEM    = UTC
MEAN_ELEMENT_THEORY = SGP/SGP4

EPOCH          = 2025-12-09T00:10:31.774944
MEAN_MOTION    = 15.72845555
ECCENTRICITY   = .00068773
INCLINATION    = 51.6283
RA_OF_ASC_NODE = 154.3653
ARG_OF_PERICENTER = 253.5848
MEAN_ANOMALY   = 106.4394

EPHEMERIS_TYPE = 0
CLASSIFICATION_TYPE = U
NORAD_CAT_ID   = 65733
ELEMENT_SET_NO = 999
REV_AT_EPOCH   = 1259
BSTAR          = .15000957E-2
MEAN_MOTION_DOT = .21266E-2
MEAN_MOTION_DDOT = 0

CCSDS_OMM_VERS = 2.0
CREATION_DATE  = 
ORIGINATOR     = 

OBJECT_NAME    = YOTSUBA-KULOVER
OBJECT_ID      = 1998-067XN
CENTER_NAME    = EARTH
REF_FRAME      = TEME
TIME_SYSTEM    = UTC
MEAN_ELEMENT_THEORY = SGP/SGP4

EPOCH          = 2025-12-08T16:11:16.679040
MEAN_MOTION    = 15.58725095
ECCENTRICITY   = .00016918
INCLINATION    = 51.6278
RA_OF_ASC_NODE = 160.3988
ARG_OF_PERICENTER = 209.1564
MEAN_ANOMALY   = 150.9334

EPHEMERIS_TYPE = 0
CLASSIFICATION_TYPE = U
NORAD_CAT_ID   = 65941
ELEMENT_SET_NO = 999
REV_AT_EPOCH   = 922
BSTAR          = .92611573E-3
MEAN_MOTION_DOT = .72881E-3
MEAN_MOTION_DDOT = 0

CCSDS_OMM_VERS = 2.0
CREATION_DATE  = 
ORIGINATOR     = 

OBJECT_NAME    = BOTAN
OBJECT_ID      = 1998-067XP
CENTER_NAME    = EARTH
REF_FRAME      = TEME
TIME_SYSTEM    = UTC
MEAN_ELEMENT_THEORY = SGP/SGP4

EPOCH          = 2025-12-08T18:03:33.084000
MEAN_MOTION    = 15.61774772
ECCENTRICITY   = .00036469
INCLINATION    = 51.6289
RA_OF_ASC_NODE = 159.4206
ARG_OF_PERICENTER = 205.1392
MEAN_ANOMALY   = 154.9425

EPHEMERIS_TYPE = 0
CLASSIFICATION_TYPE = U
NORAD_CAT_ID   = 65942
ELEMENT_SET_NO = 999
REV_AT_EPOCH   = 924
BSTAR          = .11867098E-2
MEAN_MOTION_DOT = .105605E-2
MEAN_MOTION_DDOT = 0

CCSDS_OMM_VERS = 2.0
CREATION_DATE  = 
ORIGINATOR     = 

OBJECT_NAME    = E-KAGAKU-1
OBJECT_ID      = 1998-067XQ
CENTER_NAME    = EARTH
REF_FRAME      = TEME
TIME_SYSTEM    = UTC
MEAN_ELEMENT_THEORY = SGP/SGP4

EPOCH          = 2025-12-08T17:43:35.861664
MEAN_MOTION    = 15.58651727
ECCENTRICITY   = .00029774
INCLINATION    = 51.6297
RA_OF_ASC_NODE = 160.0822
ARG_OF_PERICENTER = 178.8942
MEAN_ANOMALY   = 181.2057

EPHEMERIS_TYPE = 0
CLASSIFICATION_TYPE = U
NORAD_CAT_ID   = 65943
ELEMENT_SET_NO = 999
REV_AT_EPOCH   = 923
BSTAR          = .85624806E-3
MEAN_MOTION_DOT = .67115E-3
MEAN_MOTION_DDOT = 0

CCSDS_OMM_VERS = 2.0
CREATION_DATE  = 
ORIGINATOR     = 

OBJECT_NAME    = HRC MONOBLOCK CAMERA
OBJECT_ID      = 1998-067XR
CENTER_NAME    = EARTH
REF_FRAME      = TEME
TIME_SYSTEM    = UTC
MEAN_ELEMENT_THEORY = SGP/SGP4

EPOCH          = 2025-12-09T12:00:01.914624
MEAN_MOTION    = 15.53794743
ECCENTRICITY   = .0003812
INCLINATION    = 51.6290
RA_OF_ASC_NODE = 157.6571
ARG_OF_PERICENTER = 171.0105
MEAN_ANOMALY   = 189.0954

EPHEMERIS_TYPE = 0
CLASSIFICATION_TYPE = U
NORAD_CAT_ID   = 66052
ELEMENT_SET_NO = 999
REV_AT_EPOCH   = 833
BSTAR          = .68667E-3
MEAN_MOTION_DOT = .4469E-3
MEAN_MOTION_DDOT = 0

CCSDS_OMM_VERS = 2.0
CREATION_DATE  = 
ORIGINATOR     = 

OBJECT_NAME    = HTV-X1
OBJECT_ID      = 2025-241A
CENTER_NAME    = EARTH
REF_FRAME      = TEME
TIME_SYSTEM    = UTC
MEAN_ELEMENT_THEORY = SGP/SGP4

EPOCH          = 2025-12-09T04:29:48.234912
MEAN_MOTION    = 15.49438460
ECCENTRICITY   = .00033664
INCLINATION    = 51.6308
RA_OF_ASC_NODE = 160.0685
ARG_OF_PERICENTER = 223.6321
MEAN_ANOMALY   = 136.4401

EPHEMERIS_TYPE = 0
CLASSIFICATION_TYPE = U
NORAD_CAT_ID   = 66174
ELEMENT_SET_NO = 999
REV_AT_EPOCH   = 51
BSTAR          = .2526091E-3
MEAN_MOTION_DOT = .13707E-3
MEAN_MOTION_DDOT = 0

CCSDS_OMM_VERS = 2.0
CREATION_DATE  = 
ORIGINATOR     = 

OBJECT_NAME    = SZ-21 MODULE
OBJECT_ID      = 2025-246C
CENTER_NAME    = EARTH
REF_FRAME      = TEME
TIME_SYSTEM    = UTC
MEAN_ELEMENT_THEORY = SGP/SGP4

EPOCH          = 2025-12-09T05:09:56.835360
MEAN_MOTION    = 15.62223553
ECCENTRICITY   = .0006283
INCLINATION    = 41.4773
RA_OF_ASC_NODE = 37.5424
ARG_OF_PERICENTER = 241.0117
MEAN_ANOMALY   = 119.0093

EPHEMERIS_TYPE = 0
CLASSIFICATION_TYPE = U
NORAD_CAT_ID   = 66515
ELEMENT_SET_NO = 999
REV_AT_EPOCH   = 389
BSTAR          = .35922E-3
MEAN_MOTION_DOT = .32371E-3
MEAN_MOTION_DDOT = 0

CCSDS_OMM_VERS = 2.0
CREATION_DATE  = 
ORIGINATOR     = 

OBJECT_NAME    = SHENZHOU-22
OBJECT_ID      = 2025-272A
CENTER_NAME    = EARTH
REF_FRAME      = TEME
TIME_SYSTEM    = UTC
MEAN_ELEMENT_THEORY = SGP/SGP4

EPOCH          = 2025-12-09T04:35:44.551104
MEAN_MOTION    = 15.58940873
ECCENTRICITY   = .00089717
INCLINATION    = 41.4680
RA_OF_ASC_NODE = 38.2458
ARG_OF_PERICENTER = 2.1097
MEAN_ANOMALY   = 357.9778

EPHEMERIS_TYPE = 0
CLASSIFICATION_TYPE = U
NORAD_CAT_ID   = 66645
ELEMENT_SET_NO = 999
REV_AT_EPOCH   = 26300
BSTAR          = .38224086E-3
MEAN_MOTION_DOT = .30369E-3
MEAN_MOTION_DDOT = 0

